{"type": "Feature", "properties": {"name": "Marche", "source": "OpenStreetMap / Overpass", "osm_relation_id": 53060, "downloaded_at": "2026-10-07T09:05:31.706204+00:00", "attribution": "\u00c3\u00aa OpenStreetMap contributors, ODbL"}, "geometry": {"type": "Polygon", "coordinates": [[[12.7487898, 43.9527478], [12.7510008, 43.971583], [12.7967572, 43.9653881], [12.9048264, 43.9266224], [12.9039202, 43.9163747], [12.9057001, 43.9278239], [12.9856849, 43.8656767], [13.022393, 43.8533058], [13.2831217, 43.6809934], [13.4533928, 43.6107289], [13.4809291, 43.6067918], [13.4976909, 43.6226924], [13.5031164, 43.6176873], [13.5015176, 43.6146569], [13.5036211, 43.6131239], [13.5086489, 43.6229732], [13.4938978, 43.625535], [13.5068289, 43.6305027], [13.5530488, 43.6024131], [13.575974, 43.5686609], [13.6256322, 43.5504591], [13.624046, 43.5011867], [13.813603, 43.16891], [13.8470803, 43.0932779], [13.8798855, 42.9678385], [13.8862581, 42.953674], [13.8946665, 42.9600184], [13.8874485, 42.9499392], [13.9163244, 42.89535], [13.7224783, 42.8553536], [13.7066022, 42.8493121], [13.6993033, 42.8226156], [13.6542181, 42.8048649], [13.6349122, 42.8035205], [13.6243989, 42.8165417], [13.5722476, 42.8003732], [13.5344999, 42.8166499], [13.5297334, 42.7959893], [13.5023165, 42.7709691], [13.497517, 42.7399473], [13.4479874, 42.7322172], [13.4375659, 42.6991975], [13.4273969, 42.7064253], [13.3899813, 42.6871561], [13.3411589, 42.7017636], [13.2862766, 42.7404064], [13.2644989, 42.7401855], [13.2541525, 42.7214521], [13.1875961, 42.7336731], [13.1951193, 42.7619168], [13.234313, 42.7731462], [13.2385338, 42.7609418], [13.2595251, 42.789692], [13.2514729, 42.7943667], [13.2631311, 42.8147586], [13.2352706, 42.8676862], [13.2122478, 42.8417159], [13.1608634, 42.831898], [13.1122455, 42.8893295], [13.0544191, 42.9201958], [13.0263804, 42.902238], [13.0014554, 42.9134724], [12.9920363, 42.9008123], [13.0010585, 42.8892052], [12.9890949, 42.8694966], [12.9761569, 42.8698022], [12.9683941, 42.9006808], [12.9767005, 42.9260927], [12.9493368, 42.9299576], [12.9480524, 42.9414702], [12.8958221, 42.964592], [12.9082279, 42.9853133], [12.8879599, 43.009801], [12.9055538, 43.0202844], [12.8899348, 43.0588841], [12.8973277, 43.0934846], [12.8813078, 43.1212114], [12.8430031, 43.1223442], [12.8308681, 43.1415465], [12.8624905, 43.165966], [12.8682441, 43.1952125], [12.8623449, 43.2112521], [12.8366, 43.2175352], [12.8306582, 43.2601466], [12.788981, 43.2832259], [12.8009875, 43.2947834], [12.7987366, 43.325042], [12.7490451, 43.3788133], [12.7483613, 43.3925748], [12.7818296, 43.4154522], [12.7655877, 43.4270481], [12.7726151, 43.4567887], [12.7346162, 43.4643446], [12.7088578, 43.4246829], [12.6631766, 43.4368308], [12.6194173, 43.4165862], [12.4998147, 43.521458], [12.4805343, 43.5274538], [12.4578814, 43.5152762], [12.4373665, 43.5385536], [12.4179356, 43.534894], [12.3948244, 43.5088396], [12.3667278, 43.5341031], [12.3317959, 43.5245007], [12.312894, 43.5445138], [12.3440279, 43.5528593], [12.3702926, 43.5794015], [12.3613096, 43.5965391], [12.3700595, 43.611996], [12.3356247, 43.6115801], [12.2995399, 43.5858733], [12.2254679, 43.5933172], [12.1854536, 43.6411036], [12.2328026, 43.6555382], [12.2502215, 43.6716207], [12.2441689, 43.6817804], [12.2947535, 43.6842305], [12.3085839, 43.7296559], [12.3171363, 43.6775668], [12.3362595, 43.6785503], [12.3303547, 43.7084172], [12.3706674, 43.7072747], [12.3273254, 43.7505234], [12.2836618, 43.7629534], [12.2827722, 43.7896959], [12.3871848, 43.8154915], [12.404573, 43.8763884], [12.4456932, 43.870806], [12.4629654, 43.8947581], [12.4874043, 43.8964693], [12.4993597, 43.873587], [12.5181745, 43.8810415], [12.5416922, 43.8640278], [12.5894923, 43.885645], [12.5893597, 43.8652515], [12.6194397, 43.844339], [12.6140589, 43.8274241], [12.6725643, 43.8235717], [12.6831634, 43.8285104], [12.6820395, 43.8526176], [12.7339925, 43.870259], [12.7226533, 43.8802805], [12.7339404, 43.8961707], [12.7268305, 43.9251601], [12.7487898, 43.9527478]], [[12.4297955, 43.606845], [12.4234509, 43.6101494], [12.4078047, 43.602136], [12.4319981, 43.5915145], [12.4297955, 43.606845]]]}}